[{"OBJECT_NAME":"VRSS-1","OBJECT_ID":"2012-052A","EPOCH":"2026-03-09T23:06:08.647776","MEAN_MOTION":14.79803332,"ECCENTRICITY":0.00171344,"INCLINATION":97.6079,"RA_OF_ASC_NODE":50.4386,"ARG_OF_PERICENTER":196.7503,"MEAN_ANOMALY":163.3146,"EPHEMERIS_TYPE":0,"CLASSIFICATION_TYPE":"U","NORAD_CAT_ID":38782,"ELEMENT_SET_NO":999,"REV_AT_EPOCH":72493,"BSTAR":0.00021678471,"MEAN_MOTION_DOT":1.587e-5,"MEAN_MOTION_DDOT":0},{"OBJECT_NAME":"FENGYUN 1C DEB","OBJECT_ID":"1999-025CSU","EPOCH":"2026-03-07T21:14:13.818624","MEAN_MOTION":14.60913824,"ECCENTRICITY":0.01709309,"INCLINATION":99.182,"RA_OF_ASC_NODE":104.0364,"ARG_OF_PERICENTER":168.74,"MEAN_ANOMALY":191.77,"EPHEMERIS_TYPE":0,"CLASSIFICATION_TYPE":"U","NORAD_CAT_ID":32150,"ELEMENT_SET_NO":999,"REV_AT_EPOCH":98949,"BSTAR":0.00024028489,"MEAN_MOTION_DOT":1.378e-5,"MEAN_MOTION_DDOT":0}]
